*******************************************************************************
Ephemeris / WWW_USER Mon Mar 26 20:11:40 2018 Pasadena, USA      / Horizons    
*******************************************************************************
Target body name: Phobos (401)                    {source: mar097}
Center body name: Mars Barycenter (4)             {source: mar097}
Center-site name: BODY CENTER
*******************************************************************************
Start time      : A.D. 2000-Jan-01 00:00:00.0000 TDB
Stop  time      : A.D. 2005-Jan-01 00:00:00.0000 TDB
Step-size       : 7200 minutes
*******************************************************************************
Center geodetic : 0.00000000,0.00000000,0.0000000 {E-lon(deg),Lat(deg),Alt(km)}
Center cylindric: 0.00000000,0.00000000,0.0000000 {E-lon(deg),Dxy(km),Dz(km)}
Center radii    : (undefined)                                                  
Output units    : AU-D                                                         
Output type     : GEOMETRIC cartesian states
Output format   : 2 (position and velocity)
Reference frame : ICRF/J2000.0                                                 
Coordinate systm: Ecliptic and Mean Equinox of Reference Epoch                 
*******************************************************************************
JDTDB
   X     Y     Z
   VX    VY    VZ
*******************************************************************************
$$SOE
2453014.500000000 = A.D. 2004-Jan-10 00:00:00.0000 TDB 
  -4.828647108774301E-05 -3.539123284915305E-05  2.060289061128075E-05
   6.004549079492498E-04 -1.002884962265030E-03 -3.565303330605701E-04
2453019.500000000 = A.D. 2004-Jan-15 00:00:00.0000 TDB 
  -9.344652851501887E-06  6.168426564156337E-05  8.703361412644034E-06
  -1.096325151515261E-03 -2.200991030664136E-04  5.081630982042952E-04
2453024.500000000 = A.D. 2004-Jan-20 00:00:00.0000 TDB 
   5.296349715429367E-05 -1.750290922511633E-05 -2.645700677530474E-05
   3.505202779633260E-04  1.200107237630552E-03 -8.558047577974814E-05
2453029.500000000 = A.D. 2004-Jan-25 00:00:00.0000 TDB 
  -4.040726652304133E-05 -4.587347902827799E-05  1.618190446192935E-05
   7.899866641472810E-04 -8.282099014966453E-04 -4.323670776160301E-04
2453034.500000000 = A.D. 2004-Jan-30 00:00:00.0000 TDB 
  -2.144749337914498E-05  5.763729460949172E-05  1.405294246204712E-05
  -1.031647936564643E-03 -4.779390212021660E-04  4.599079189751513E-04
2453039.500000000 = A.D. 2004-Feb-04 00:00:00.0000 TDB 
   5.551328836778055E-05 -3.918812770440984E-06 -2.670494059678902E-05
   1.030658224219047E-04  1.248726135535956E-03  3.291764801492206E-05
2453044.500000000 = A.D. 2004-Feb-09 00:00:00.0000 TDB 
  -3.057489850956911E-05 -5.414425212979019E-05  1.104860884459209E-05
   9.416273262349316E-04 -6.129997548796784E-04 -4.882410803955549E-04
2453049.500000000 = A.D. 2004-Feb-14 00:00:00.0000 TDB 
  -3.252575106210319E-05  5.080661822255999E-05  1.874386237297129E-05
  -9.168446372869759E-04 -7.118569677649902E-04  3.909259653721646E-04
2453054.500000000 = A.D. 2004-Feb-19 00:00:00.0000 TDB 
   5.525855560867049E-05  9.865412648250559E-06 -2.568237624153470E-05
  -1.497236960840610E-04  1.235344803008936E-03  1.494736247693215E-04
2453059.500000000 = A.D. 2004-Feb-24 00:00:00.0000 TDB 
  -1.926455551290107E-05 -5.980608382450600E-05  5.432241014525022E-06
   1.047813199951733E-03 -3.673252657788642E-04 -5.217286158489579E-04
2453064.500000000 = A.D. 2004-Feb-29 00:00:00.0000 TDB 
  -4.204014090626282E-05  4.151934411032749E-05  2.257345126297198E-05
  -7.577089260828443E-04 -9.108150173102192E-04  3.044567285653775E-04
2453069.500000000 = A.D. 2004-Mar-05 00:00:00.0000 TDB 
   5.221008275506307E-05  2.316117397658775E-05 -2.344154327216958E-05
  -3.949370110556615E-04  1.160704214724678E-03  2.586944889685288E-04
2453074.500000000 = A.D. 2004-Mar-10 00:00:00.0000 TDB 
  -7.036050257354809E-06 -6.257912140518308E-05 -4.127515499494349E-07
   1.103040733481585E-03 -1.029644574559035E-04 -5.312939922953900E-04
2453079.500000000 = A.D. 2004-Mar-15 00:00:00.0000 TDB 
  -4.952624392818453E-05  3.022454743154515E-05  2.537517428752017E-05
  -5.621484855835862E-04 -1.065334043037267E-03  2.044477698309083E-04
2453084.500000000 = A.D. 2004-Mar-20 00:00:00.0000 TDB 
   4.652127383042932E-05  3.531097206783265E-05 -2.008866298757899E-05
  -6.202052309173074E-04  1.028531718861242E-03  3.555934192517194E-04
2453089.500000000 = A.D. 2004-Mar-25 00:00:00.0000 TDB 
   5.514184426564539E-06 -6.232587376031282E-05 -6.227432473530440E-06
   1.104343883358963E-03  1.674778166313199E-04 -5.164350204402479E-04
2453094.500000000 = A.D. 2004-Mar-30 00:00:00.0000 TDB 
  -5.461909937651428E-05  1.746548017554954E-05  2.702671780989304E-05
  -3.399038046670274E-04 -1.168254459432473E-03  9.540728568375140E-05
2453099.500000000 = A.D. 2004-Apr-04 00:00:00.0000 TDB 
   3.848453068377058E-05  4.570279080774332E-05 -1.577980324159366E-05
  -8.140358837640999E-04  8.455303223864114E-04  4.356749706755505E-04
2453104.500000000 = A.D. 2004-Apr-09 00:00:00.0000 TDB 
   1.776667656767595E-05 -5.905586862341020E-05 -1.175129162071698E-05
   1.051314267703172E-03  4.308614204774077E-04 -4.776247713905194E-04
2453109.500000000 = A.D. 2004-Apr-14 00:00:00.0000 TDB 
  -5.707618071960704E-05  3.849822852229249E-06  2.745464649517171E-05
  -1.017900546938126E-04 -1.214871319708924E-03 -1.788427514377527E-05
2453114.500000000 = A.D. 2004-Apr-19 00:00:00.0000 TDB 
   2.850587822052655E-05  5.382223682816088E-05 -1.071015302941858E-05
  -9.667475234586939E-04  6.208663224009749E-04  4.952519345835475E-04
2453119.500000000 = A.D. 2004-Apr-24 00:00:00.0000 TDB 
   2.911671896829880E-05 -5.292313899411316E-05 -1.673460641040064E-05
   9.464031775242788E-04  6.743288595134351E-04 -4.164426660965032E-04
2453124.500000000 = A.D. 2004-Apr-29 00:00:00.0000 TDB 
  -5.678024319135518E-05 -9.962117333673705E-06  2.663675978197415E-05
   1.404887351573632E-04 -1.203115850772050E-03 -1.303913445313067E-04
2453129.500000000 = A.D. 2004-May-04 00:00:00.0000 TDB 
   1.709503993829835E-05  5.926525000157212E-05 -5.112209284401564E-06
  -1.070661001460146E-03  3.658555613594244E-04  5.315081056211057E-04
2453134.500000000 = A.D. 2004-May-09 00:00:00.0000 TDB 
   3.900815846717194E-05 -4.422037320936719E-05 -2.095235147257933E-05
   7.945161824957141E-04  8.859620593461530E-04 -3.353854421054911E-04
2453139.500000000 = A.D. 2004-May-14 00:00:00.0000 TDB 
  -5.375081978853199E-05 -2.331437526954086E-05  2.460299002900128E-05
   3.752829137597386E-04 -1.133694932441287E-03 -2.372015426512410E-04
2453144.500000000 = A.D. 2004-May-19 00:00:00.0000 TDB 
   4.828031925075410E-06  6.176165285015929E-05  7.594823304617622E-07
  -1.120828344564210E-03  9.329486387053856E-05  5.427398859336436E-04
2453149.500000000 = A.D. 2004-May-24 00:00:00.0000 TDB 
   4.694666065841263E-05 -3.337253611469769E-05 -2.420425548519469E-05
   6.030673351348994E-04  1.055123966744294E-03 -2.379348631171272E-04
2453154.500000000 = A.D. 2004-May-29 00:00:00.0000 TDB 
  -4.814347912540193E-05 -3.556437184111297E-05  2.143679498701985E-05
   5.912110162544820E-04 -1.009997284258609E-03 -3.335096590133551E-04
2453159.500000000 = A.D. 2004-Jun-03 00:00:00.0000 TDB 
  -7.680631957810568E-06  6.118942953069369E-05  6.635673056554755E-06
  -1.114993057456839E-03 -1.832864072979726E-04  5.283100871460699E-04
2453164.500000000 = A.D. 2004-Jun-08 00:00:00.0000 TDB 
   5.254341270645591E-05 -2.090415483722163E-05 -2.633305966727509E-05
   3.813558808844379E-04  1.173298522060707E-03 -1.283179366135475E-04
2453169.500000000 = A.D. 2004-Jun-13 00:00:00.0000 TDB 
  -4.023427726160315E-05 -4.612859329811946E-05  1.726955637177699E-05
   7.780177114151013E-04 -8.380298544331218E-04 -4.149799495515971E-04
2453174.500000000 = A.D. 2004-Jun-18 00:00:00.0000 TDB 
  -1.979735589463701E-05  5.757718637085137E-05  1.224009986255640E-05
  -1.053845296440102E-03 -4.500238906857972E-04  4.887690457868665E-04
2453179.500000000 = A.D. 2004-Jun-23 00:00:00.0000 TDB 
   5.552355837746848E-05 -7.430321057657992E-06 -2.722686487238656E-05
   1.403681163212321E-04  1.234270365169716E-03 -1.144791883688664E-05
2453184.500000000 = A.D. 2004-Jun-28 00:00:00.0000 TDB 
  -3.040978481463638E-05 -5.450577744848795E-05  1.227672190807666E-05
   9.268628906237928E-04 -6.259277204226374E-04 -4.778123928344346E-04
2453189.500000000 = A.D. 2004-Jul-03 00:00:00.0000 TDB 
  -3.092244944654763E-05  5.110416881061654E-05  1.730883004955785E-05
  -9.408446156039973E-04 -6.938290604480469E-04  4.257854865375126E-04
2453194.500000000 = A.D. 2004-Jul-08 00:00:00.0000 TDB 
   5.574409894777897E-05  6.390194628354978E-06 -2.682720495365326E-05
  -1.079785124238123E-04  1.234753174203266E-03  1.073354764070910E-04
2453199.500000000 = A.D. 2004-Jul-13 00:00:00.0000 TDB 
  -1.915278644837345E-05 -6.029103834100044E-05  6.677043357644138E-06
   1.030724284305221E-03 -3.839140301859249E-04 -5.189406701791141E-04
2453204.500000000 = A.D. 2004-Jul-18 00:00:00.0000 TDB 
  -4.050164162976136E-05  4.209644362868852E-05  2.159477584809261E-05
  -7.820430829217614E-04 -9.026587449519532E-04  3.421663146638189E-04
2453209.500000000 = A.D. 2004-Jul-23 00:00:00.0000 TDB 
   5.320007742700530E-05  1.987995778386791E-05 -2.513536543059161E-05
  -3.513655304530512E-04  1.174302175837932E-03  2.224623924516260E-04
2453214.500000000 = A.D. 2004-Jul-28 00:00:00.0000 TDB 
  -7.005051534170653E-06 -6.321032370167381E-05  7.159336103083786E-07
   1.084823356315231E-03 -1.234037597971519E-04 -5.362316628881941E-04
2453219.500000000 = A.D. 2004-Aug-02 00:00:00.0000 TDB 
  -4.806867552407412E-05  3.099666698134708E-05  2.488617757656866E-05
  -5.856900032857192E-04 -1.066481867757693E-03  2.416863505449328E-04
